LEMUR-2-DEMBITZ         
1 42842U 17042T   26068.47492167  .00020231  00000+0  76561-3 0  9991
2 42842  97.3807 250.9241 0006961  17.1421 343.0051 15.26947128473114
STARLINK-31783          
1 59750U 24090W   26068.34833197 -.00001420  00000+0 -42087-4 0  9994
2 59750  43.0002 185.7862 0001719 288.5690  71.4975 15.27582441103376
